{
  "norad_id": 48373,
  "name": "STARLINK-2609",
  "history": [
    {
      "epoch": "2026-03-28T17:39:05.398560Z",
      "apogee_km": 476.30107058588965,
      "perigee_km": 474.0759328619897,
      "latitude_deg": 2.4251268124165078e-05,
      "longitude_deg": 166.10486687650277,
      "height_km": 476.06116748151646,
      "semi_major_axis_km": 6853.32550172394,
      "eccentricity": 0.00016234,
      "inclination_deg": 53.16,
      "raan_deg": 257.029,
      "arg_perigee_deg": 88.7167,
      "mean_anomaly_deg": 271.402,
      "mean_motion_rev_day": 15.30208898
    },
    {
      "epoch": "2026-03-29T04:37:28.068672Z",
      "apogee_km": 476.3384724834459,
      "perigee_km": 474.07960962831385,
      "latitude_deg": 2.3945065192280246e-05,
      "longitude_deg": -1.0636357719013414,
      "height_km": 475.91248899741174,
      "semi_major_axis_km": 6853.346041055879,
      "eccentricity": 0.0001648,
      "inclination_deg": 53.1597,
      "raan_deg": 254.9056,
      "arg_perigee_deg": 80.1041,
      "mean_anomaly_deg": 280.0146,
      "mean_motion_rev_day": 15.30202019
    },
    {
      "epoch": "2026-03-30T04:08:15.944064Z",
      "apogee_km": 476.203150318006,
      "perigee_km": 474.22458792209,
      "latitude_deg": -8.868315816960398e-06,
      "longitude_deg": 0.7192027246250411,
      "height_km": 476.09853086965796,
      "semi_major_axis_km": 6853.350869120048,
      "eccentricity": 0.00014435,
      "inclination_deg": 53.1596,
      "raan_deg": 250.3536,
      "arg_perigee_deg": 89.2394,
      "mean_anomaly_deg": 270.8772,
      "mean_motion_rev_day": 15.30200402
    },
    {
      "epoch": "2026-03-30T10:24:28.487520Z",
      "apogee_km": 476.0988287732416,
      "perigee_km": 474.29448308830797,
      "latitude_deg": -8.5994233309334e-06,
      "longitude_deg": -94.80366712293132,
      "height_km": 476.0256687554382,
      "semi_major_axis_km": 6853.3336559307745,
      "eccentricity": 0.00013164,
      "inclination_deg": 53.1596,
      "raan_deg": 249.1405,
      "arg_perigee_deg": 85.6158,
      "mean_anomaly_deg": 274.4993,
      "mean_motion_rev_day": 15.30206167
    },
    {
      "epoch": "2026-03-30T19:48:47.198592Z",
      "apogee_km": 476.06765869455467,
      "perigee_km": 474.249205284631,
      "latitude_deg": -2.0239974532432664e-05,
      "longitude_deg": 121.91150412022206,
      "height_km": 475.9838317511308,
      "semi_major_axis_km": 6853.2954319895925,
      "eccentricity": 0.00013267,
      "inclination_deg": 53.1599,
      "raan_deg": 247.3199,
      "arg_perigee_deg": 85.4199,
      "mean_anomaly_deg": 274.6953,
      "mean_motion_rev_day": 15.30218969
    },
    {
      "epoch": "2026-03-31T19:19:36.710400Z",
      "apogee_km": 477.70842276152325,
      "perigee_km": 472.8178364290434,
      "latitude_deg": 1.145429709123479e-05,
      "longitude_deg": 123.68815433301005,
      "height_km": 476.0187066850029,
      "semi_major_axis_km": 6853.400129595283,
      "eccentricity": 0.0003568,
      "inclination_deg": 53.1586,
      "raan_deg": 242.7685,
      "arg_perigee_deg": 86.7451,
      "mean_anomaly_deg": 273.3958,
      "mean_motion_rev_day": 15.30183904
    },
    {
      "epoch": "2026-04-01T03:09:53.092800Z",
      "apogee_km": 478.0937543729124,
      "perigee_km": 472.4233919435919,
      "latitude_deg": 2.271223123178005e-05,
      "longitude_deg": 4.284712698582139,
      "height_km": 475.74476229438466,
      "semi_major_axis_km": 6853.395573158252,
      "eccentricity": 0.00041369,
      "inclination_deg": 53.1593,
      "raan_deg": 241.2552,
      "arg_perigee_deg": 81.7385,
      "mean_anomaly_deg": 278.4085,
      "mean_motion_rev_day": 15.3018543
    },
    {
      "epoch": "2026-04-02T18:21:12.036960Z",
      "apogee_km": 476.3615562346413,
      "perigee_km": 474.1318763763793,
      "latitude_deg": 1.3974840554990264e-05,
      "longitude_deg": 127.2602553601396,
      "height_km": 476.2070028638464,
      "semi_major_axis_km": 6853.3837163055105,
      "eccentricity": 0.00016267,
      "inclination_deg": 53.1588,
      "raan_deg": 233.6691,
      "arg_perigee_deg": 93.2314,
      "mean_anomaly_deg": 266.8873,
      "mean_motion_rev_day": 15.30189401
    }
  ]
}